[{"OBJECT_NAME":"STARLINK-2343","OBJECT_ID":"2021-021AA","EPOCH":"2026-03-10T00:00:02.999808","MEAN_MOTION":15.26280353,"ECCENTRICITY":0.0001319,"INCLINATION":53.1422,"RA_OF_ASC_NODE":279.4171,"ARG_OF_PERICENTER":82.2814,"MEAN_ANOMALY":282.8013,"EPHEMERIS_TYPE":0,"CLASSIFICATION_TYPE":"U","NORAD_CAT_ID":47884,"ELEMENT_SET_NO":999,"REV_AT_EPOCH":579,"BSTAR":0.057497756,"MEAN_MOTION_DOT":0.01671594,"MEAN_MOTION_DDOT":0},{"OBJECT_NAME":"SITRO-AIS 11 (SHEFFER)","OBJECT_ID":"2023-091AU","EPOCH":"2026-03-09T22:16:15.083040","MEAN_MOTION":15.34976359,"ECCENTRICITY":0.00078786,"INCLINATION":97.5188,"RA_OF_ASC_NODE":137.7379,"ARG_OF_PERICENTER":69.8129,"MEAN_ANOMALY":290.396,"EPHEMERIS_TYPE":0,"CLASSIFICATION_TYPE":"U","NORAD_CAT_ID":57208,"ELEMENT_SET_NO":999,"REV_AT_EPOCH":14954,"BSTAR":0.00072300407,"MEAN_MOTION_DOT":0.00024521,"MEAN_MOTION_DDOT":0}]
